{
  "type": "FeatureCollection",
  "features": [
    {
      "type": "Feature",
      "properties": {
        "norad_id": 34022,
        "name": "COSMOS 2251 DEB",
        "group": "cosmos-2251-debris",
        "lat": -33.28087698950623,
        "lon": 76.60486845298469,
        "alt_km": 768.7288310084086,
        "timestamp": "2025-12-26T07:29:18.847953+00:00",
        "meta_object_name": "COSMOS 2251 DEB",
        "meta_object_id": "1993-036HH",
        "meta_epoch": "2025-12-25T19:09:01.902816",
        "meta_mean_motion": 14.38981277,
        "meta_eccentricity": 0.00230823,
        "meta_inclination": 74.0535,
        "meta_ra_of_asc_node": 246.7345,
        "meta_arg_of_pericenter": 309.6295,
        "meta_mean_anomaly": 123.279,
        "meta_ephemeris_type": 0,
        "meta_classification_type": "U",
        "meta_norad_cat_id": 34022,
        "meta_element_set_no": 999,
        "meta_rev_at_epoch": 88383,
        "meta_bstar": 0.00020169058,
        "meta_mean_motion_dot": 5.98e-06,
        "meta_mean_motion_ddot": 0,
        "tle_line1": "1 34022U 93036HH  25359.79793869  .00000598  00000+0  20169-3 0  9996",
        "tle_line2": "2 34022  74.0535 246.7345 0023082 309.6295 123.2790 14.38981277883831"
      },
      "geometry": {
        "type": "Point",
        "coordinates": [
          76.60486845298469,
          -33.28087698950623
        ]
      }
    },
    {
      "type": "Feature",
      "properties": {
        "norad_id": 34023,
        "name": "COSMOS 2251 DEB",
        "group": "cosmos-2251-debris",
        "lat": -31.10609488139619,
        "lon": 56.58025385507512,
        "alt_km": 766.359186853686,
        "timestamp": "2025-12-26T07:29:18.847963+00:00",
        "meta_object_name": "COSMOS 2251 DEB",
        "meta_object_id": "1993-036HJ",
        "meta_epoch": "2025-12-25T19:12:53.480736",
        "meta_mean_motion": 14.40585466,
        "meta_eccentricity": 0.00189245,
        "meta_inclination": 74.0237,
        "meta_ra_of_asc_node": 227.5723,
        "meta_arg_of_pericenter": 321.4214,
        "meta_mean_anomaly": 120.0591,
        "meta_ephemeris_type": 0,
        "meta_classification_type": "U",
        "meta_norad_cat_id": 34023,
        "meta_element_set_no": 999,
        "meta_rev_at_epoch": 88402,
        "meta_bstar": 0.00026402988,
        "meta_mean_motion_dot": 8.17e-06,
        "meta_mean_motion_ddot": 0,
        "tle_line1": "1 34023U 93036HJ  25359.80061899  .00000817  00000+0  26403-3 0  9991",
        "tle_line2": "2 34023  74.0237 227.5723 0018924 321.4214 120.0591 14.40585466884029"
      },
      "geometry": {
        "type": "Point",
        "coordinates": [
          56.58025385507512,
          -31.10609488139619
        ]
      }
    },
    {
      "type": "Feature",
      "properties": {
        "norad_id": 34024,
        "name": "COSMOS 2251 DEB",
        "group": "cosmos-2251-debris",
        "lat": -29.239643291053163,
        "lon": -78.09619496628069,
        "alt_km": 764.0077624174091,
        "timestamp": "2025-12-26T07:29:18.847973+00:00",
        "meta_object_name": "COSMOS 2251 DEB",
        "meta_object_id": "1993-036HK",
        "meta_epoch": "2025-12-25T05:24:22.584096",
        "meta_mean_motion": 14.35409875,
        "meta_eccentricity": 0.0021572,
        "meta_inclination": 74.047,
        "meta_ra_of_asc_node": 293.1089,
        "meta_arg_of_pericenter": 341.2015,
        "meta_mean_anomaly": 134.8477,
        "meta_ephemeris_type": 0,
        "meta_classification_type": "U",
        "meta_norad_cat_id": 34024,
        "meta_element_set_no": 999,
        "meta_rev_at_epoch": 88203,
        "meta_bstar": 0.00020067,
        "meta_mean_motion_dot": 5.51e-06,
        "meta_mean_motion_ddot": 0,
        "tle_line1": "1 34024U 93036HK  25359.22526139  .00000551  00000+0  20067-3 0  9996",
        "tle_line2": "2 34024  74.0470 293.1089 0021572 341.2015 134.8477 14.35409875882033"
      },
      "geometry": {
        "type": "Point",
        "coordinates": [
          -78.09619496628069,
          -29.239643291053163
        ]
      }
    },
    {
      "type": "Feature",
      "properties": {
        "norad_id": 34026,
        "name": "COSMOS 2251 DEB",
        "group": "cosmos-2251-debris",
        "lat": 31.636265610808607,
        "lon": -34.94373143807608,
        "alt_km": 1234.3999247072607,
        "timestamp": "2025-12-26T07:29:18.847984+00:00",
        "meta_object_name": "COSMOS 2251 DEB",
        "meta_object_id": "1993-036HM",
        "meta_epoch": "2025-12-25T00:00:06.887808",
        "meta_mean_motion": 13.65323017,
        "meta_eccentricity": 0.0349583,
        "meta_inclination": 73.7668,
        "meta_ra_of_asc_node": 316.8973,
        "meta_arg_of_pericenter": 185.0257,
        "meta_mean_anomaly": 244.2207,
        "meta_ephemeris_type": 0,
        "meta_classification_type": "U",
        "meta_norad_cat_id": 34026,
        "meta_element_set_no": 999,
        "meta_rev_at_epoch": 83699,
        "meta_bstar": 0.00042875556,
        "meta_mean_motion_dot": 5.06e-06,
        "meta_mean_motion_ddot": 0,
        "tle_line1": "1 34026U 93036HM  25359.00007972  .00000506  00000+0  42876-3 0  9995",
        "tle_line2": "2 34026  73.7668 316.8973 0349583 185.0257 244.2207 13.65323017836998"
      },
      "geometry": {
        "type": "Point",
        "coordinates": [
          -34.94373143807608,
          31.636265610808607
        ]
      }
    },
    {
      "type": "Feature",
      "properties": {
        "norad_id": 34028,
        "name": "COSMOS 2251 DEB",
        "group": "cosmos-2251-debris",
        "lat": 22.297439192668296,
        "lon": -26.748665304518692,
        "alt_km": 1079.0271165434287,
        "timestamp": "2025-12-26T07:29:18.847994+00:00",
        "meta_object_name": "COSMOS 2251 DEB",
        "meta_object_id": "1993-036HP",
        "meta_epoch": "2025-12-25T15:51:04.913856",
        "meta_mean_motion": 13.20634107,
        "meta_eccentricity": 0.0543469,
        "meta_inclination": 73.884,
        "meta_ra_of_asc_node": 327.4411,
        "meta_arg_of_pericenter": 103.0652,
        "meta_mean_anomaly": 69.802,
        "meta_ephemeris_type": 0,
        "meta_classification_type": "U",
        "meta_norad_cat_id": 34028,
        "meta_element_set_no": 999,
        "meta_rev_at_epoch": 81178,
        "meta_bstar": 0.00053402,
        "meta_mean_motion_dot": 4.55e-06,
        "meta_mean_motion_ddot": 0,
        "tle_line1": "1 34028U 93036HP  25359.66047354  .00000455  00000+0  53402-3 0  9997",
        "tle_line2": "2 34028  73.8840 327.4411 0543469 103.0652  69.8020 13.20634107811786"
      },
      "geometry": {
        "type": "Point",
        "coordinates": [
          -26.748665304518692,
          22.297439192668296
        ]
      }
    },
    {
      "type": "Feature",
      "properties": {
        "norad_id": 34031,
        "name": "COSMOS 2251 DEB",
        "group": "cosmos-2251-debris",
        "lat": -73.47960646263851,
        "lon": 4.930312216091137,
        "alt_km": 687.6069955449211,
        "timestamp": "2025-12-26T07:29:18.848005+00:00",
        "meta_object_name": "COSMOS 2251 DEB",
        "meta_object_id": "1993-036HS",
        "meta_epoch": "2025-12-25T17:42:22.590144",
        "meta_mean_motion": 14.59834823,
        "meta_eccentricity": 0.002284,
        "meta_inclination": 74.013,
        "meta_ra_of_asc_node": 110.8807,
        "meta_arg_of_pericenter": 230.7538,
        "meta_mean_anomaly": 258.1518,
        "meta_ephemeris_type": 0,
        "meta_classification_type": "U",
        "meta_norad_cat_id": 34031,
        "meta_element_set_no": 999,
        "meta_rev_at_epoch": 88755,
        "meta_bstar": 0.0013538468,
        "meta_mean_motion_dot": 6.473e-05,
        "meta_mean_motion_ddot": 0,
        "tle_line1": "1 34031U 93036HS  25359.73776146  .00006473  00000+0  13538-2 0  9998",
        "tle_line2": "2 34031  74.0130 110.8807 0022840 230.7538 258.1518 14.59834823887557"
      },
      "geometry": {
        "type": "Point",
        "coordinates": [
          4.930312216091137,
          -73.47960646263851
        ]
      }
    },
    {
      "type": "Feature",
      "properties": {
        "norad_id": 34035,
        "name": "COSMOS 2251 DEB",
        "group": "cosmos-2251-debris",
        "lat": 48.73606642433305,
        "lon": -17.3847527194997,
        "alt_km": 713.2415607648427,
        "timestamp": "2025-12-26T07:29:18.848015+00:00",
        "meta_object_name": "COSMOS 2251 DEB",
        "meta_object_id": "1993-036HW",
        "meta_epoch": "2025-12-25T08:47:59.113824",
        "meta_mean_motion": 14.52104917,
        "meta_eccentricity": 0.0045298,
        "meta_inclination": 74.0663,
        "meta_ra_of_asc_node": 325.3908,
        "meta_arg_of_pericenter": 324.5878,
        "meta_mean_anomaly": 186.3967,
        "meta_ephemeris_type": 0,
        "meta_classification_type": "U",
        "meta_norad_cat_id": 34035,
        "meta_element_set_no": 999,
        "meta_rev_at_epoch": 88149,
        "meta_bstar": 0.0019229,
        "meta_mean_motion_dot": 7.871e-05,
        "meta_mean_motion_ddot": 0,
        "tle_line1": "1 34035U 93036HW  25359.36665641  .00007871  00000+0  19229-2 0  9994",
        "tle_line2": "2 34035  74.0663 325.3908 0045298 324.5878 186.3967 14.52104917881492"
      },
      "geometry": {
        "type": "Point",
        "coordinates": [
          -17.3847527194997,
          48.73606642433305
        ]
      }
    }
  ]
}